{"type":"FeatureCollection","features":[
{"geometry": {"type": "Point", "coordinates": [-78.5625744, 38.153177]}, "type": "Feature", "properties": {"City": "Free Charlottesville", "Mag_Dist": "White Hall", "Prec_Code": "602", "Zipcode": "22901", "FID": 1, "Address": "4220 Free Union Rd", "POLLING_PL": "Free Union Country School"}},
{"geometry": {"type": "Point", "coordinates": [-78.4392605, 38.1124096]}, "type": "Feature", "properties": {"City": "Charlottesville", "Mag_Dist": "Rivanna", "Prec_Code": "503", "Zipcode": "22911", "FID": 2, "Address": "2775 Powell Creek Dr", "POLLING_PL": "Hollymead Elementary School"}},
{"geometry": {"type": "Point", "coordinates": [-78.4769854, 38.0895302]}, "type": "Feature", "properties": {"City": "Charlottesville", "Mag_Dist": "Rio", "Prec_Code": "104", "Zipcode": "22901", "FID": 3, "Address": "3201 Berkmar Dr", "POLLING_PL": "Agnor-Hurt Elementary School"}},
{"geometry": {"type": "Point", "coordinates": [-78.4666298, 38.0871321]}, "type": "Feature", "properties": {"City": "Charlottesville", "Mag_Dist": "Rio", "Prec_Code": "101", "Zipcode": "22901", "FID": 4, "Address": "100 Woodbrook Dr", "POLLING_PL": "Woodbrook Elementary School"}},
{"geometry": {"type": "Point", "coordinates": [-78.3695277, 38.1118919]}, "type": "Feature", "properties": {"City": "Keswick", "Mag_Dist": "Rivanna", "Prec_Code": "502", "Zipcode": "22947", "FID": 5, "Address": "3893 Stony Point Rd", "POLLING_PL": "Stony Point Elementary School"}},
{"geometry": {"type": "Point", "coordinates": [-78.6973221, 38.0745757]}, "type": "Feature", "properties": {"City": "Crozet", "Mag_Dist": "White Hall", "Prec_Code": "601", "Zipcode": "22932", "FID": 6, "Address": "1407 Crozet Ave", "POLLING_PL": "Crozet Elementary School"}},
{"geometry": {"type": "Point", "coordinates": [-78.7029869, 38.0519844]}, "type": "Feature", "properties": {"City": "Charlottesville", "Mag_Dist": "White Hall", "Prec_Code": "604", "Zipcode": "22903", "FID": 7, "Address": "5870 Rockfish Gap Tpke", "POLLING_PL": "Brownsville Elementary School"}},
{"geometry": {"type": "Point", "coordinates": [-78.5980393, 38.0811814]}, "type": "Feature", "properties": {"City": "Charlottesville", "Mag_Dist": "Samuel Miller", "Prec_Code": "301", "Zipcode": "22901", "FID": 8, "Address": "1610 Owensville Rd", "POLLING_PL": "Meriwether Lewis Elementary School"}},
{"geometry": {"type": "Point", "coordinates": [-78.5068276, 38.0769415]}, "type": "Feature", "properties": {"City": "Charlottesville", "Mag_Dist": "Jack Jouett", "Prec_Code": "201", "Zipcode": "22901", "FID": 9, "Address": "210 Lambs Ln", "POLLING_PL": "Jack Jouett Middle School"}},
{"geometry": {"type": "Point", "coordinates": [-78.5000471, 38.0754948]}, "type": "Feature", "properties": {"City": "Charlottesville", "Mag_Dist": "Jack Jouett", "Prec_Code": "203", "Zipcode": "22901", "FID": 10, "Address": "2775 Hydraulic Road", "POLLING_PL": "Albemarle High School"}},
{"geometry": {"type": "Point", "coordinates": [-78.5087973, 38.0446109]}, "type": "Feature", "properties": {"City": "Charlottesville", "Mag_Dist": "Jack Jouett", "Prec_Code": "202", "Zipcode": "22903", "FID": 11, "Address": "300 Massie Rd", "POLLING_PL": "University Hall"}},
{"geometry": {"type": "Point", "coordinates": [-78.4810045, 38.0685854]}, "type": "Feature", "properties": {"City": "Charlottesville", "Mag_Dist": "Rio", "Prec_Code": "103", "Zipcode": "22901", "FID": 12, "Address": "1180 Pepsi Place", "POLLING_PL": "Senior Center"}},
{"geometry": {"type": "Point", "coordinates": [-78.46387, 38.0624943]}, "type": "Feature", "properties": {"City": "Charlottesville", "Mag_Dist": "Rio", "Prec_Code": "105", "Zipcode": "22901", "FID": 13, "Address": "1000 Rio Rd East", "POLLING_PL": "C.A.T.E.C."}},
{"geometry": {"type": "Point", "coordinates": [-78.4508797, 38.0390673]}, "type": "Feature", "properties": {"City": "Charlottesville", "Mag_Dist": "Rivanna", "Prec_Code": "504", "Zipcode": "22911", "FID": 14, "Address": "389 Elk Dr", "POLLING_PL": "Elks' Lodge Hall"}},
{"geometry": {"type": "Point", "coordinates": [-78.2961014, 38.0577823]}, "type": "Feature", "properties": {"City": "Keswick", "Mag_Dist": "Rivanna", "Prec_Code": "501", "Zipcode": "22947", "FID": 15, "Address": "802 Zion Hill Rd", "POLLING_PL": "Zion Hill Baptist Church"}},
{"geometry": {"type": "Point", "coordinates": [-78.3972749, 38.0107626]}, "type": "Feature", "properties": {"City": "Charlottesville", "Mag_Dist": "Scottsville", "Prec_Code": "406", "Zipcode": "22911", "FID": 16, "Address": "958 North Milton Rd", "POLLING_PL": "Stone-Robinson Elementary School"}},
{"geometry": {"type": "Point", "coordinates": [-78.5269589, 38.0026845]}, "type": "Feature", "properties": {"City": "Charlottesville", "Mag_Dist": "Samuel Miller", "Prec_Code": "305", "Zipcode": "22903", "FID": 17, "Address": "1284 Sunset Ave Ext", "POLLING_PL": "Calvary Chapel Church"}},
{"geometry": {"type": "Point", "coordinates": [-78.4992861, 37.9963171]}, "type": "Feature", "properties": {"City": "Charlottesville", "Mag_Dist": "Scottsville", "Prec_Code": "405", "Zipcode": "22902", "FID": 18, "Address": "1757 Avon St Ext", "POLLING_PL": "Cale Elementary School"}},
{"geometry": {"type": "Point", "coordinates": [-78.4893152, 37.9992027]}, "type": "Feature", "properties": {"City": "Charlottesville", "Mag_Dist": "Scottsville", "Prec_Code": "402", "Zipcode": "22902", "FID": 19, "Address": "1400 Independence Way", "POLLING_PL": "Monticello High School"}},
{"geometry": {"type": "Point", "coordinates": [-78.6355025, 37.9641518]}, "type": "Feature", "properties": {"City": "North Garden", "Mag_Dist": "Samuel Miller", "Prec_Code": "302", "Zipcode": "22959", "FID": 20, "Address": "3901 Red Hill School Rd", "POLLING_PL": "Red Hill Elementary School"}},
{"geometry": {"type": "Point", "coordinates": [-78.5959339, 37.8212692]}, "type": "Feature", "properties": {"City": "Esmont", "Mag_Dist": "Samuel Miller", "Prec_Code": "306", "Zipcode": "22937", "FID": 21, "Address": "7625 Porters Rd", "POLLING_PL": "Yancey Elementary School"}},
{"geometry": {"type": "Point", "coordinates": [-78.5104274, 37.8185056]}, "type": "Feature", "properties": {"City": "Scottsville", "Mag_Dist": "Scottsville", "Prec_Code": "401", "Zipcode": "24590", "FID": 22, "Address": "7868 Scottsville Rd", "POLLING_PL": "Scottsville Elementary School"}},
{"geometry": {"type": "Point", "coordinates": [-78.5199314, 38.0566024]}, "type": "Feature", "properties": {"City": "Charlottesville", "Mag_Dist": "Jack Jouett", "Prec_Code": "204", "Zipcode": "22903", "FID": 23, "Address": "799 Faulconer Dr", "POLLING_PL": "STAB Lower - Convocation Center"}},
{"geometry": {"type": "Point", "coordinates": [-78.4908263, 38.1456209]}, "type": "Feature", "properties": {"City": "Earlysville", "Mag_Dist": "Rio", "Prec_Code": "106", "Zipcode": "22936", "FID": 24, "Address": "283 Reas Ford Rd", "POLLING_PL": "Earlysville Volunteer Fire Station"}},
{"geometry": {"type": "Point", "coordinates": [-78.7276379, 37.9915548]}, "type": "Feature", "properties": {"City": "Afton", "Mag_Dist": "Samuel Miller", "Prec_Code": "307", "Zipcode": "22920", "FID": 25, "Address": "1606 Craigs Store Rd", "POLLING_PL": "Mount Ed Baptist Church"}},
{"geometry": {"type": "Point", "coordinates": [-78.4898215, 38.1625511]}, "type": "Feature", "properties": {"City": "Earlysville", "Mag_Dist": "White Hall", "Prec_Code": "603", "Zipcode": "22936", "FID": 26, "Address": "185 Buck Mountain Rd", "POLLING_PL": "Broadus Wood Elementary School"}},
{"geometry": {"type": "Point", "coordinates": [-78.5136473, 38.0477496]}, "type": "Feature", "properties": {"City": "Charlottesville", "Mag_Dist": "Samuel Miller", "Prec_Code": "304", "Zipcode": "22903", "FID": 27, "Address": "2204 Old Ivy Rd", "POLLING_PL": "Miller Center"}},
{"geometry": {"type": "Point", "coordinates": [-78.4206224, 38.1232782]}, "type": "Feature", "properties": {"City": "Charlottesville", "Mag_Dist": "Rivanna", "Prec_Code": "506", "Zipcode": "22911", "FID": 28, "Address": "2740 Proffit Rd", "POLLING_PL": "Baker-Butler Elementary School"}}
]}