{"type":"FeatureCollection","features":[
{"geometry": {"type": "Point", "coordinates": [-77.4557927, 38.3161728]}, "type": "Feature", "properties": {"OBJECTID": 1, "ZIP": 0, "Locality": " ", "MailCity": " ", "Place": "YMCA", "Address": " ", "Include": 0, "Type": "Community"}},
{"geometry": {"type": "Point", "coordinates": [-77.5010085, 38.3532345]}, "type": "Feature", "properties": {"OBJECTID": 3, "ZIP": 0, "Locality": " ", "MailCity": " ", "Place": "STAFFORD GYMNASTICS & REC CENTER", "Address": " ", "Include": 0, "Type": "Community"}},
{"geometry": {"type": "Point", "coordinates": [-77.4862902, 38.3652825]}, "type": "Feature", "properties": {"OBJECTID": 4, "ZIP": 0, "Locality": " ", "MailCity": " ", "Place": "ENON COMMUNITY CENTER", "Address": " ", "Include": 0, "Type": "Community"}},
{"geometry": {"type": "Point", "coordinates": [-77.4350853, 38.4626523]}, "type": "Feature", "properties": {"OBJECTID": 7, "ZIP": 0, "Locality": " ", "MailCity": " ", "Place": "WOODLANDS POOL", "Address": " ", "Include": 0, "Type": "Community"}},
{"geometry": {"type": "Point", "coordinates": [-77.3847939, 38.4780116]}, "type": "Feature", "properties": {"OBJECTID": 14, "ZIP": 0, "Locality": " ", "MailCity": " ", "Place": "CARL LEWIS COMMUNITY CENTER", "Address": " ", "Include": 0, "Type": "Community"}},
{"geometry": {"type": "Point", "coordinates": [-77.4256502, 38.4566397]}, "type": "Feature", "properties": {"OBJECTID": 15, "ZIP": 0, "Locality": " ", "MailCity": " ", "Place": "HAMPTON OAKS COMMUNITY CENTER", "Address": " ", "Include": 0, "Type": "Community"}},
{"geometry": {"type": "Point", "coordinates": [-77.4478093, 38.4693598]}, "type": "Feature", "properties": {"OBJECTID": 16, "ZIP": 0, "Locality": " ", "MailCity": "STAFFORD, VA 22554", "Place": "PARK RIDGE COMMUNITY CENTER", "Address": "1001 PARKWAY BLVD", "Include": 0, "Type": "Community"}},
{"geometry": {"type": "Point", "coordinates": [-77.5666116, 38.4316732]}, "type": "Feature", "properties": {"OBJECTID": 17, "ZIP": 0, "Locality": " ", "MailCity": " ", "Place": "CURTIS PARK POOL", "Address": " ", "Include": 0, "Type": "Community"}},
{"geometry": {"type": "Point", "coordinates": [-77.4208093, 38.4044007]}, "type": "Feature", "properties": {"OBJECTID": 40, "ZIP": 0, "Locality": " ", "MailCity": "Stafford, Va 22554", "Place": "ROWSER BUILDING", "Address": "1739 Jefferson Davis Highway", "Include": 0, "Type": "Community"}},
{"geometry": {"type": "Point", "coordinates": [-77.4063077, 38.424706]}, "type": "Feature", "properties": {"OBJECTID": 73, "ZIP": 0, "Locality": " ", "MailCity": " ", "Place": "COURTHOUSE COMMUNITY CENTER", "Address": " ", "Include": 0, "Type": "Community"}}
]}